0 FENGYUN 1C DEB
1 32224U 99025CVW 13280.48734268  .00000321  00000-0  14205-3 0  4518
2 32224 098.9250 019.0318 0083059 034.8709 325.7874 14.28199314322630
0 FENGYUN 1C DEB
1 32224U 99025CVW 13283.49980023  .00000394  00000-0  17056-3 0  4522
2 32224 098.9254 022.1107 0082895 026.1408 334.3922 14.28203778323060
0 FENGYUN 1C DEB
1 32224U 99025CVW 13286.51224757  .00000411  00000-0  17706-3 0  4536
2 32224 098.9258 025.1899 0082730 017.3920 343.0064 14.28205989323491
0 FENGYUN 1C DEB
1 32224U 99025CVW 13289.52468721  .00000567  00000-0  23752-3 0  4542
2 32224 098.9257 028.2693 0082579 008.6357 351.6222 14.28210186323928
0 FENGYUN 1C DEB
1 32224U 99025CVW 13294.07835833  .00000614  00000-0  25567-3 0  4550
2 32224 098.9252 032.9244 0082356 355.3560 004.6847 14.28215851324572
